{"fetched_at":"2026-07-22T07:09:31.078Z","source":"https://celestrak.org/NORAD/elements/gp.php?GROUP=stations&FORMAT=JSON","constellation":"crewed-vehicles","records":[{"OBJECT_NAME":"SOYUZ-MS 28","OBJECT_ID":"2025-275A","EPOCH":"2026-07-21T04:27:10.178208","CLASSIFICATION_TYPE":"U","MEAN_MOTION":15.49071756,"ECCENTRICITY":0.00068493,"INCLINATION":51.6316,"RA_OF_ASC_NODE":131.8443,"ARG_OF_PERICENTER":320.6461,"MEAN_ANOMALY":39.4029,"EPHEMERIS_TYPE":0,"NORAD_CAT_ID":66664,"ELEMENT_SET_NO":999,"REV_AT_EPOCH":57611,"BSTAR":0.00011479289,"MEAN_MOTION_DOT":0.00005896,"MEAN_MOTION_DDOT":0},{"OBJECT_NAME":"CREW DRAGON 12","OBJECT_ID":"2026-031A","EPOCH":"2026-07-21T04:27:10.178208","CLASSIFICATION_TYPE":"U","MEAN_MOTION":15.49071756,"ECCENTRICITY":0.00068493,"INCLINATION":51.6316,"RA_OF_ASC_NODE":131.8443,"ARG_OF_PERICENTER":320.6461,"MEAN_ANOMALY":39.4029,"EPHEMERIS_TYPE":0,"NORAD_CAT_ID":67796,"ELEMENT_SET_NO":999,"REV_AT_EPOCH":57641,"BSTAR":0.00011479289,"MEAN_MOTION_DOT":0.00005896,"MEAN_MOTION_DDOT":0},{"OBJECT_NAME":"SHENZHOU-23 (SZ-23)","OBJECT_ID":"2026-113A","EPOCH":"2026-07-21T10:22:13.652544","CLASSIFICATION_TYPE":"U","MEAN_MOTION":15.58235366,"ECCENTRICITY":0.00017469,"INCLINATION":41.4683,"RA_OF_ASC_NODE":114.0267,"ARG_OF_PERICENTER":306.5318,"MEAN_ANOMALY":53.5359,"EPHEMERIS_TYPE":0,"NORAD_CAT_ID":69180,"ELEMENT_SET_NO":999,"REV_AT_EPOCH":29796,"BSTAR":0.00014511777,"MEAN_MOTION_DOT":0.00010973,"MEAN_MOTION_DDOT":0},{"OBJECT_NAME":"SOYUZ-MS 29","OBJECT_ID":"2026-162A","EPOCH":"2026-07-21T04:27:10.178208","CLASSIFICATION_TYPE":"U","MEAN_MOTION":15.49071756,"ECCENTRICITY":0.00068493,"INCLINATION":51.6316,"RA_OF_ASC_NODE":131.8443,"ARG_OF_PERICENTER":320.6461,"MEAN_ANOMALY":39.4029,"EPHEMERIS_TYPE":0,"NORAD_CAT_ID":100057,"ELEMENT_SET_NO":999,"REV_AT_EPOCH":57627,"BSTAR":0.00011479289,"MEAN_MOTION_DOT":0.00005896,"MEAN_MOTION_DDOT":0}]}
